NORAD_CAT_ID,OBJECT_NAME,OBJECT_TYPE,EPOCH,MEAN_MOTION,ECCENTRICITY,INCLINATION,RA_OF_ASC_NODE,ARG_OF_PERICENTER,MEAN_ANOMALY,BSTAR,MEAN_MOTION_DOT,MEAN_MOTION_DDOT,TLE_LINE0,TLE_LINE1,TLE_LINE2,SEMIMAJOR_AXIS,PERIOD,APOGEE,PERIGEE,DECAYED
54055.0,STARLINK-5158,PAYLOAD,2024-04-29 19:24:34,15.08835251,0.0001488,53.2145,151.9008,104.3563,255.7594,0.00060708,9.386e-05,0.0,0 STARLINK-5158,1 54055U 22136E   24120.80873032  .00009386  00000-0  60708-3 0  9993,2 54055  53.2145 151.9008 0001488 104.3563 255.7594 15.08835251 84353,6917.895,95.438,540.789,538.731,0.0
54055.0,STARLINK-5158,PAYLOAD,2024-04-30 01:46:06,15.08842972,0.0001472,53.2141,150.7111,104.6713,255.4443,0.00064223,9.949e-05,0.0,0 STARLINK-5158,1 54055U 22136E   24121.07368957  .00009949  00000-0  64223-3 0  9999,2 54055  53.2141 150.7111 0001472 104.6713 255.4443 15.08842972 84879,6917.871,95.437,540.755,538.718,0.0
54055.0,STARLINK-5158,PAYLOAD,2024-04-30 08:07:39,15.08850257,0.0001471,53.2143,149.5217,104.0843,256.0312,0.00069833,0.00010847,0.0,0 STARLINK-5158,1 54055U 22136E   24121.33864774  .00010847  00000-0  69833-3 0  9997,2 54055  53.2143 149.5217 0001471 104.0843 256.0312 15.08850257 84430,6917.849,95.437,540.732,538.696,0.0
54055.0,STARLINK-5158,PAYLOAD,2024-04-30 19:15:20,15.08858638,0.0001439,53.2142,147.4399,104.0294,256.0858,0.00072467,0.0001127,0.0,0 STARLINK-5158,1 54055U 22136E   24121.80232372  .00011270  00000-0  72467-3 0  9990,2 54055  53.2142 147.4399 0001439 104.0294 256.0858 15.08858638 84505,6917.823,95.436,540.684,538.693,0.0
54055.0,STARLINK-5158,PAYLOAD,2024-05-01 11:09:11,15.08864329,0.0001468,53.2149,144.4664,102.2588,257.8569,0.00052394,8.066e-05,0.0,0 STARLINK-5158,1 54055U 22136E   24122.46471573  .00008066  00000-0  52394-3 0  9997,2 54055  53.2149 144.4664 0001468 102.2588 257.8569 15.08864329 85088,6917.806,95.436,540.687,538.655,0.0
54055.0,STARLINK-5158,PAYLOAD,2024-05-01 19:06:06,15.08859447,0.0001442,53.2144,142.9786,102.8726,257.2428,0.00029043,4.34e-05,0.0,0 STARLINK-5158,1 54055U 22136E   24122.79591309  .00004340  00000-0  29043-3 0  9999,2 54055  53.2144 142.9786 0001442 102.8726 257.2428 15.08859447 84658,6917.821,95.436,540.683,538.688,0.0
54055.0,STARLINK-5158,PAYLOAD,2024-05-02 04:38:26,15.0884237,0.000138,53.2152,141.1956,95.2535,264.8615,-9.2963e-05,-1.767e-05,0.0,0 STARLINK-5158,1 54055U 22136E   24123.19335723 -.00001767  00000-0 -92963-4 0  9994,2 54055  53.2152 141.1956 0001380  95.2535 264.8615 15.08842370 85190,6917.873,95.437,540.693,538.783,0.0
54055.0,STARLINK-5158,PAYLOAD,2024-05-02 07:49:12,15.08842253,0.0001493,53.2165,140.6024,94.1928,265.9235,-7.8099e-05,-1.531e-05,0.0,0 STARLINK-5158,1 54055U 22136E   24123.32583786 -.00001531  00000-0 -78099-4 0  9996,2 54055  53.2165 140.6024 0001493  94.1928 265.9235 15.08842253 84732,6917.874,95.437,540.771,538.706,0.0
54055.0,STARLINK-5158,PAYLOAD,2024-05-03 10:50:45,15.08847937,0.0001379,53.2153,135.5459,88.7457,271.3693,0.00052909,8.144e-05,0.0,0 STARLINK-5158,1 54055U 22136E   24124.45191731  .00008144  00000-0  52909-3 0  9992,2 54055  53.2153 135.5459 0001379  88.7457 271.3693 15.08847937 85388,6917.856,95.437,540.675,538.767,0.0
54055.0,STARLINK-5158,PAYLOAD,2024-05-03 17:12:18,15.08850461,0.000139,53.2153,134.3562,89.474,270.6411,0.00046452,7.115e-05,0.0,0 STARLINK-5158,1 54055U 22136E   24124.71687551  .00007115  00000-0  46452-3 0  9994,2 54055  53.2153 134.3562 0001390  89.4740 270.6411 15.08850461 84943,6917.848,95.437,540.675,538.752,0.0
54055.0,STARLINK-5158,PAYLOAD,2024-05-04 04:20:00,15.08834648,0.000172,53.2161,132.2794,117.1431,242.9737,-2.9842e-05,-7.63e-06,0.0,0 STARLINK-5158,1 54055U 22136E   24125.18055904 -.00000763  00000-0 -29842-4 0  9996,2 54055  53.2161 132.2794 0001720 117.1431 242.9737 15.08834648 85492,6917.897,95.438,540.952,538.572,0.0
54055.0,STARLINK-5158,PAYLOAD,2024-05-05 05:46:11,15.08838015,0.0001332,53.215,127.5161,98.0183,262.0961,0.00010136,1.326e-05,0.0,0 STARLINK-5158,1 54055U 22136E   24126.24040528  .00001326  00000-0  10136-3 0  9999,2 54055  53.2150 127.5161 0001332  98.0183 262.0961 15.08838015 85657,6917.886,95.438,540.673,538.83,0.0
54055.0,STARLINK-5158,PAYLOAD,2024-05-05 23:15:25,15.08842427,0.0001348,53.2147,124.2448,96.6967,263.4178,0.00038944,5.916e-05,0.0,0 STARLINK-5158,1 54055U 22136E   24126.96904809  .00005916  00000-0  38944-3 0  9995,2 54055  53.2147 124.2448 0001348  96.6967 263.4178 15.08842427 85282,6917.873,95.437,540.67,538.805,0.0
54055.0,STARLINK-5158,PAYLOAD,2024-05-06 08:47:44,15.08852253,0.000134,53.2146,122.4605,97.1263,262.9882,0.00053504,8.24e-05,0.0,0 STARLINK-5158,1 54055U 22136E   24127.36648547  .00008240  00000-0  53504-3 0  9996,2 54055  53.2146 122.4605 0001340  97.1263 262.9882 15.08852253 85827,6917.843,95.437,540.635,538.781,0.0
54055.0,STARLINK-5158,PAYLOAD,2024-05-06 16:44:39,15.08856606,0.0001344,53.2146,120.9731,93.2653,266.8493,0.0005479,8.447e-05,0.0,0 STARLINK-5158,1 54055U 22136E   24127.69768309  .00008447  00000-0  54790-3 0  9998,2 54055  53.2146 120.9731 0001344  93.2653 266.8493 15.08856606 85393,6917.83,95.437,540.624,538.765,0.0
54055.0,STARLINK-5158,PAYLOAD,2024-05-07 05:27:44,15.08854722,0.0001379,53.2143,118.5942,94.7934,265.3215,0.0003715,5.632e-05,0.0,0 STARLINK-5158,1 54055U 22136E   24128.22760034  .00005632  00000-0  37150-3 0  9999,2 54055  53.2143 118.5942 0001379  94.7934 265.3215 15.08854722 85958,6917.835,95.437,540.654,538.746,0.0
54055.0,STARLINK-5158,PAYLOAD,2024-05-07 08:38:30,15.08855069,0.0001355,53.2145,117.9995,94.2625,265.8522,0.00033522,5.053e-05,0.0,0 STARLINK-5158,1 54055U 22136E   24128.36007933  .00005053  00000-0  33522-3 0  9992,2 54055  53.2145 117.9995 0001355  94.2625 265.8522 15.08855069 85497,6917.834,95.437,540.637,538.762,0.0
54055.0,STARLINK-5158,PAYLOAD,2024-05-07 16:35:26,15.08855636,0.0001305,53.214,116.5115,93.6752,266.4389,0.00028386,4.235e-05,0.0,0 STARLINK-5158,1 54055U 22136E   24128.69127618  .00004235  00000-0  28386-3 0  9994,2 54055  53.2140 116.5115 0001305  93.6752 266.4389 15.08855636 85544,6917.833,95.437,540.6,538.795,0.0
54055.0,STARLINK-5158,PAYLOAD,2024-05-08 05:18:31,15.08843498,0.0001357,53.2147,114.1333,90.8625,269.2522,1.6259e-05,-2.9e-07,0.0,0 STARLINK-5158,1 54055U 22136E   24129.22119891 -.00000029  00000-0  16259-4 0  9993,2 54055  53.2147 114.1333 0001357  90.8625 269.2522 15.08843498 86108,6917.87,95.437,540.673,538.796,0.0
54055.0,STARLINK-5158,PAYLOAD,2024-05-08 08:29:17,15.08845091,0.0001512,53.2161,113.5392,93.3936,266.7229,6.0008e-05,6.67e-06,0.0,0 STARLINK-5158,1 54055U 22136E   24129.35367967  .00000667  00000-0  60008-4 0  9994,2 54055  53.2161 113.5392 0001512  93.3936 266.7229 15.08845091 85643,6917.865,95.437,540.776,538.684,0.0
54055.0,STARLINK-5158,PAYLOAD,2024-05-08 16:26:13,15.08844549,0.0001499,53.2165,112.052,99.5233,260.5929,9.2184e-05,1.18e-05,0.0,0 STARLINK-5158,1 54055U 22136E   24129.68487926  .00001180  00000-0  92184-4 0  9999,2 54055  53.2165 112.0520 0001499  99.5233 260.5929 15.08844549 85697,6917.866,95.437,540.768,538.694,0.0
54055.0,STARLINK-5158,PAYLOAD,2024-05-09 05:09:18,15.08844229,0.0001396,53.2164,109.6732,92.6131,267.5021,9.5668e-05,1.235e-05,0.0,0 STARLINK-5158,1 54055U 22136E   24130.21479959  .00001235  00000-0  95668-4 0  9998,2 54055  53.2164 109.6732 0001396  92.6131 267.5021 15.08844229 85774,6917.867,95.437,540.698,538.767,0.0
54055.0,STARLINK-5158,PAYLOAD,2024-05-09 22:38:33,15.08844689,0.0001446,53.2172,106.4022,94.4382,265.6776,0.00023264,3.417e-05,0.0,0 STARLINK-5158,1 54055U 22136E   24130.94344062  .00003417  00000-0  23264-3 0  9990,2 54055  53.2172 106.4022 0001446  94.4382 265.6776 15.08844689 85882,6917.866,95.437,540.731,538.731,0.0
54055.0,STARLINK-5158,PAYLOAD,2024-05-10 05:00:05,15.08841035,0.0001537,53.2178,105.2118,99.5389,260.5776,0.00022036,3.221e-05,0.0,0 STARLINK-5158,1 54055U 22136E   24131.20840255  .00003221  00000-0  22036-3 0  9994,2 54055  53.2178 105.2118 0001537  99.5389 260.5776 15.08841035 86400,6917.877,95.437,540.806,538.679,0.0
54055.0,STARLINK-5158,PAYLOAD,2024-05-10 08:10:52,15.08841267,0.0001518,53.2178,104.6171,101.0777,259.0386,0.00013796,1.908e-05,0.0,0 STARLINK-5158,1 54055U 22136E   24131.34088198  .00001908  00000-0  13796-3 0  9992,2 54055  53.2178 104.6171 0001518 101.0777 259.0386 15.08841267 85946,6917.877,95.437,540.792,538.691,0.0
54055.0,STARLINK-5158,PAYLOAD,2024-05-11 03:15:28,15.08862166,0.0002298,53.218,101.0481,126.7586,233.3617,0.00041472,6.322e-05,0.0,0 STARLINK-5158,1 54055U 22136E   24132.13575088  .00006322  00000-0  41472-3 0  9996,2 54055  53.2180 101.0481 0002298 126.7586 233.3617 15.08862166 86542,6917.813,95.436,541.267,538.088,0.0
54055.0,STARLINK-5158,PAYLOAD,2024-05-11 14:23:08,15.08904683,0.0001652,53.2179,98.9668,67.0344,293.0822,0.0011341,0.00017839,0.0,0 STARLINK-5158,1 54055U 22136E   24132.59940715  .00017839  00000-0  11341-2 0  9995,2 54055  53.2179  98.9668 0001652  67.0344 293.0822 15.08904683 86613,6917.683,95.433,540.69,538.405,0.0
54055.0,STARLINK-5158,PAYLOAD,2024-05-11 22:20:07,15.08797047,0.0001444,53.2178,97.4812,85.0228,275.0928,-0.0012666,-0.00020366,0.0,0 STARLINK-5158,1 54055U 22136E   24132.93064004 -.00020366  00000-0 -12666-2 0  9993,2 54055  53.2178  97.4812 0001444  85.0228 275.0928 15.08797047 86180,6918.012,95.44,540.876,538.878,0.0
54055.0,STARLINK-5158,PAYLOAD,2024-05-12 04:41:41,15.08767503,0.0001298,53.2173,96.2924,92.1471,267.9669,-0.0016369,-0.00026193,0.0,0 STARLINK-5158,1 54055U 22136E   24133.19562141 -.00026193  00000-0 -16369-2 0  9995,2 54055  53.2173  96.2924 0001298  92.1471 267.9669 15.08767503 86706,6918.102,95.442,540.865,539.069,0.0
54055.0,STARLINK-5158,PAYLOAD,2024-05-12 14:14:02,15.08753833,0.0001263,53.2173,94.5089,91.8577,268.256,-0.0013973,-0.00022404,0.0,0 STARLINK-5158,1 54055U 22136E   24133.59308436 -.00022404  00000-0 -13973-2 0  9993,2 54055  53.2173  94.5089 0001263  91.8577 268.2560 15.08753833 86282,6918.144,95.443,540.883,539.135,0.0
